{"type": "FeatureCollection", "features": [ {"type": "Feature", "properties": {"norad_id": 34375, "name": "IRIDIUM 33 DEB", "group": "iridium-33-debris", "lat": -77.77875571252102, "lon": 166.16128748158403, "alt_km": 906.0526100037423, "timestamp": "2025-12-12T05:47:29.156151+00:00", "meta": {"OBJECT_NAME": "IRIDIUM 33 DEB", "OBJECT_ID": "1997-051FT", "EPOCH": "2025-12-12T00:08:57.011424", "MEAN_MOTION": 14.17990153, "ECCENTRICITY": 0.0103263, "INCLINATION": 86.4328, "RA_OF_ASC_NODE": 182.9943, "ARG_OF_PERICENTER": 129.0153, "MEAN_ANOMALY": 32.8209, "EPHEMERIS_TYPE": 0, "CLASSIFICATION_TYPE": "U", "NORAD_CAT_ID": 34375, "ELEMENT_SET_NO": 999, "REV_AT_EPOCH": 86701, "BSTAR": 0.00060669678, "MEAN_MOTION_DOT": 1.328e-05, "MEAN_MOTION_DDOT": 0}, "tle": {"line1": "1 34375U 97051FT  25346.00621541  .00001328  00000+0  60670-3 0  9998", "line2": "2 34375  86.4328 182.9943 0103263 129.0153  32.8209 14.17990153867013"}}, "geometry": {"type": "Point", "coordinates": [166.16128748158403, -77.77875571252102]}}, {"type": "Feature", "properties": {"norad_id": 34376, "name": "IRIDIUM 33 DEB", "group": "iridium-33-debris", "lat": -33.933127176272734, "lon": -170.74002806847855, "alt_km": 677.8441072914493, "timestamp": "2025-12-12T05:47:29.156162+00:00", "meta": {"OBJECT_NAME": "IRIDIUM 33 DEB", "OBJECT_ID": "1997-051FU", "EPOCH": "2025-12-11T05:49:44.575392", "MEAN_MOTION": 14.62535541, "ECCENTRICITY": 0.00270137, "INCLINATION": 86.299, "RA_OF_ASC_NODE": 7.2126, "ARG_OF_PERICENTER": 171.6428, "MEAN_ANOMALY": 188.5239, "EPHEMERIS_TYPE": 0, "CLASSIFICATION_TYPE": "U", "NORAD_CAT_ID": 34376, "ELEMENT_SET_NO": 999, "REV_AT_EPOCH": 87985, "BSTAR": 0.0027609719, "MEAN_MOTION_DOT": 0.00014114, "MEAN_MOTION_DDOT": 0}, "tle": {"line1": "1 34376U 97051FU  25345.24287703  .00014114  00000+0  27610-2 0  9995", "line2": "2 34376  86.2990   7.2126 0027013 171.6428 188.5239 14.62535541879858"}}, "geometry": {"type": "Point", "coordinates": [-170.74002806847855, -33.933127176272734]}}, {"type": "Feature", "properties": {"norad_id": 34486, "name": "IRIDIUM 33 DEB", "group": "iridium-33-debris", "lat": 10.389442457485114, "lon": 12.917320535755639, "alt_km": 583.9296899351984, "timestamp": "2025-12-12T05:47:29.156173+00:00", "meta": {"OBJECT_NAME": "IRIDIUM 33 DEB", "OBJECT_ID": "1997-051GB", "EPOCH": "2025-12-11T02:42:46.568736", "MEAN_MOTION": 14.95675901, "ECCENTRICITY": 0.00135337, "INCLINATION": 86.394, "RA_OF_ASC_NODE": 12.7753, "ARG_OF_PERICENTER": 118.272, "MEAN_ANOMALY": 301.206, "EPHEMERIS_TYPE": 0, "CLASSIFICATION_TYPE": "U", "NORAD_CAT_ID": 34486, "ELEMENT_SET_NO": 999, "REV_AT_EPOCH": 88962, "BSTAR": 0.0032070049, "MEAN_MOTION_DOT": 0.00035889, "MEAN_MOTION_DDOT": 0}, "tle": {"line1": "1 34486U 97051GB  25345.11303899  .00035889  00000+0  32070-2 0  9996", "line2": "2 34486  86.3940  12.7753 0013533 118.2720 301.2060 14.95675901889620"}}, "geometry": {"type": "Point", "coordinates": [12.917320535755639, 10.389442457485114]}}, {"type": "Feature", "properties": {"norad_id": 34487, "name": "IRIDIUM 33 DEB", "group": "iridium-33-debris", "lat": 59.51978826908042, "lon": -173.64532122098746, "alt_km": 719.2464844067572, "timestamp": "2025-12-12T05:47:29.156184+00:00", "meta": {"OBJECT_NAME": "IRIDIUM 33 DEB", "OBJECT_ID": "1997-051GC", "EPOCH": "2025-12-11T13:19:44.628096", "MEAN_MOTION": 14.43213873, "ECCENTRICITY": 0.00326872, "INCLINATION": 86.3435, "RA_OF_ASC_NODE": 12.8871, "ARG_OF_PERICENTER": 132.1044, "MEAN_ANOMALY": 26.644, "EPHEMERIS_TYPE": 0, "CLASSIFICATION_TYPE": "U", "NORAD_CAT_ID": 34487, "ELEMENT_SET_NO": 999, "REV_AT_EPOCH": 88231, "BSTAR": 0.00027773351, "MEAN_MOTION_DOT": 9.6e-06, "MEAN_MOTION_DDOT": 0}, "tle": {"line1": "1 34487U 97051GC  25345.55537764  .00000960  00000+0  27773-3 0  9992", "line2": "2 34487  86.3435  12.8871 0032687 132.1044  26.6440 14.43213873882315"}}, "geometry": {"type": "Point", "coordinates": [-173.64532122098746, 59.51978826908042]}}, {"type": "Feature", "properties": {"norad_id": 34488, "name": "IRIDIUM 33 DEB", "group": "iridium-33-debris", "lat": -65.84627767314177, "lon": -62.180206058834216, "alt_km": 489.35544410926286, "timestamp": "2025-12-12T05:47:29.156195+00:00", "meta": {"OBJECT_NAME": "IRIDIUM 33 DEB", "OBJECT_ID": "1997-051GD", "EPOCH": "2025-12-11T08:05:29.176800", "MEAN_MOTION": 15.28894611, "ECCENTRICITY": 0.00136408, "INCLINATION": 86.3246, "RA_OF_ASC_NODE": 306.5086, "ARG_OF_PERICENTER": 54.3044, "MEAN_ANOMALY": 305.9471, "EPHEMERIS_TYPE": 0, "CLASSIFICATION_TYPE": "U", "NORAD_CAT_ID": 34488, "ELEMENT_SET_NO": 999, "REV_AT_EPOCH": 89218, "BSTAR": 0.0084778967, "MEAN_MOTION_DOT": 0.00245926, "MEAN_MOTION_DDOT": 0}, "tle": {"line1": "1 34488U 97051GD  25345.33714325  .00245926  00000+0  84779-2 0  9990", "line2": "2 34488  86.3246 306.5086 0013640  54.3044 305.9471 15.28894611892182"}}, "geometry": {"type": "Point", "coordinates": [-62.180206058834216, -65.84627767314177]}}, {"type": "Feature", "properties": {"norad_id": 34492, "name": "IRIDIUM 33 DEB", "group": "iridium-33-debris", "lat": -61.34304463105322, "lon": 161.31117564302934, "alt_km": 677.6742890197384, "timestamp": "2025-12-12T05:47:29.156206+00:00", "meta": {"OBJECT_NAME": "IRIDIUM 33 DEB", "OBJECT_ID": "1997-051GH", "EPOCH": "2025-12-11T23:52:20.307936", "MEAN_MOTION": 14.25702027, "ECCENTRICITY": 0.01889123, "INCLINATION": 86.4727, "RA_OF_ASC_NODE": 334.9304, "ARG_OF_PERICENTER": 240.6265, "MEAN_ANOMALY": 175.7475, "EPHEMERIS_TYPE": 0, "CLASSIFICATION_TYPE": "U", "NORAD_CAT_ID": 34492, "ELEMENT_SET_NO": 999, "REV_AT_EPOCH": 85048, "BSTAR": 0.0061972974, "MEAN_MOTION_DOT": 0.00017773, "MEAN_MOTION_DDOT": 0}, "tle": {"line1": "1 34492U 97051GH  25345.99467949  .00017773  00000+0  61973-2 0  9992", "line2": "2 34492  86.4727 334.9304 0188912 240.6265 175.7475 14.25702027850489"}}, "geometry": {"type": "Point", "coordinates": [161.31117564302934, -61.34304463105322]}}, {"type": "Feature", "properties": {"norad_id": 34497, "name": "IRIDIUM 33 DEB", "group": "iridium-33-debris", "lat": 62.44062814334183, "lon": -134.55049736555233, "alt_km": 834.8750861914123, "timestamp": "2025-12-12T05:47:29.156251+00:00", "meta": {"OBJECT_NAME": "IRIDIUM 33 DEB", "OBJECT_ID": "1997-051GN", "EPOCH": "2025-12-10T04:35:23.086752", "MEAN_MOTION": 14.2744131, "ECCENTRICITY": 0.00790645, "INCLINATION": 86.2779, "RA_OF_ASC_NODE": 53.4903, "ARG_OF_PERICENTER": 347.8917, "MEAN_ANOMALY": 40.4515, "EPHEMERIS_TYPE": 0, "CLASSIFICATION_TYPE": "U", "NORAD_CAT_ID": 34497, "ELEMENT_SET_NO": 999, "REV_AT_EPOCH": 86847, "BSTAR": 0.00082191095, "MEAN_MOTION_DOT": 2.102e-05, "MEAN_MOTION_DDOT": 0}, "tle": {"line1": "1 34497U 97051GN  25344.19123943  .00002102  00000+0  82191-3 0  9997", "line2": "2 34497  86.2779  53.4903 0079064 347.8917  40.4515 14.27441310868476"}}, "geometry": {"type": "Point", "coordinates": [-134.55049736555233, 62.44062814334183]}}, {"type": "Feature", "properties": {"norad_id": 34508, "name": "IRIDIUM 33 DEB", "group": "iridium-33-debris", "lat": -75.36008227142213, "lon": -63.080904063565036, "alt_km": 763.6197657755602, "timestamp": "2025-12-12T05:47:29.156264+00:00", "meta": {"OBJECT_NAME": "IRIDIUM 33 DEB", "OBJECT_ID": "1997-051GZ", "EPOCH": "2025-12-11T20:15:42.194304", "MEAN_MOTION": 14.3841552, "ECCENTRICITY": 0.00660682, "INCLINATION": 86.3699, "RA_OF_ASC_NODE": 103.0225, "ARG_OF_PERICENTER": 175.8688, "MEAN_ANOMALY": 184.307, "EPHEMERIS_TYPE": 0, "CLASSIFICATION_TYPE": "U", "NORAD_CAT_ID": 34508, "ELEMENT_SET_NO": 999, "REV_AT_EPOCH": 87296, "BSTAR": 0.0023452152, "MEAN_MOTION_DOT": 7.356e-05, "MEAN_MOTION_DDOT": 0}, "tle": {"line1": "1 34508U 97051GZ  25345.84423836  .00007356  00000+0  23452-2 0  9997", "line2": "2 34508  86.3699 103.0225 0066068 175.8688 184.3070 14.38415520872963"}}, "geometry": {"type": "Point", "coordinates": [-63.080904063565036, -75.36008227142213]}}, {"type": "Feature", "properties": {"norad_id": 34521, "name": "IRIDIUM 33 DEB", "group": "iridium-33-debris", "lat": 27.95277468178931, "lon": 32.69241708903231, "alt_km": 682.23333057317, "timestamp": "2025-12-12T05:47:29.156275+00:00", "meta": {"OBJECT_NAME": "IRIDIUM 33 DEB", "OBJECT_ID": "1997-051HN", "EPOCH": "2025-12-11T13:15:08.871264", "MEAN_MOTION": 14.63350474, "ECCENTRICITY": 0.00014194, "INCLINATION": 86.3802, "RA_OF_ASC_NODE": 31.0706, "ARG_OF_PERICENTER": 220.6966, "MEAN_ANOMALY": 139.4141, "EPHEMERIS_TYPE": 0, "CLASSIFICATION_TYPE": "U", "NORAD_CAT_ID": 34521, "ELEMENT_SET_NO": 999, "REV_AT_EPOCH": 88455, "BSTAR": 0.0013668765, "MEAN_MOTION_DOT": 7.081e-05, "MEAN_MOTION_DDOT": 0}, "tle": {"line1": "1 34521U 97051HN  25345.55218601  .00007081  00000+0  13669-2 0  9996", "line2": "2 34521  86.3802  31.0706 0001419 220.6966 139.4141 14.63350474884557"}}, "geometry": {"type": "Point", "coordinates": [32.69241708903231, 27.95277468178931]}}, {"type": "Feature", "properties": {"norad_id": 34525, "name": "IRIDIUM 33 DEB", "group": "iridium-33-debris", "lat": -63.6704355720293, "lon": -125.57947588849711, "alt_km": 760.2263286123061, "timestamp": "2025-12-12T05:47:29.156286+00:00", "meta": {"OBJECT_NAME": "IRIDIUM 33 DEB", "OBJECT_ID": "1997-051HS", "EPOCH": "2025-12-11T22:34:35.054400", "MEAN_MOTION": 14.42903085, "ECCENTRICITY": 0.00066616, "INCLINATION": 86.3729, "RA_OF_ASC_NODE": 47.1846, "ARG_OF_PERICENTER": 97.1091, "MEAN_ANOMALY": 26.1025, "EPHEMERIS_TYPE": 0, "CLASSIFICATION_TYPE": "U", "NORAD_CAT_ID": 34525, "ELEMENT_SET_NO": 999, "REV_AT_EPOCH": 88076, "BSTAR": 0.00059132386, "MEAN_MOTION_DOT": 1.995e-05, "MEAN_MOTION_DDOT": 0}, "tle": {"line1": "1 34525U 97051HS  25345.94068350  .00001995  00000+0  59132-3 0  9991", "line2": "2 34525  86.3729  47.1846 0006661  97.1091  26.1025 14.42903085880763"}}, "geometry": {"type": "Point", "coordinates": [-125.57947588849711, -63.6704355720293]}}]}